[{"OBJECT_NAME":"ESEO","OBJECT_ID":"2018-099AL","EPOCH":"2026-03-09T15:43:37.559712","MEAN_MOTION":15.03914518,"ECCENTRICITY":0.00110626,"INCLINATION":97.4113,"RA_OF_ASC_NODE":110.2601,"ARG_OF_PERICENTER":317.6,"MEAN_ANOMALY":42.4371,"EPHEMERIS_TYPE":0,"CLASSIFICATION_TYPE":"U","NORAD_CAT_ID":43792,"ELEMENT_SET_NO":999,"REV_AT_EPOCH":39684,"BSTAR":0.00020934561,"MEAN_MOTION_DOT":2.831e-5,"MEAN_MOTION_DDOT":0},{"OBJECT_NAME":"STARLINK-34586","OBJECT_ID":"2025-158U","EPOCH":"2026-03-09T14:54:31.045824","MEAN_MOTION":15.05649193,"ECCENTRICITY":0.0002291,"INCLINATION":97.6022,"RA_OF_ASC_NODE":293.9897,"ARG_OF_PERICENTER":63.8089,"MEAN_ANOMALY":296.3373,"EPHEMERIS_TYPE":0,"CLASSIFICATION_TYPE":"U","NORAD_CAT_ID":64950,"ELEMENT_SET_NO":999,"REV_AT_EPOCH":3534,"BSTAR":0.00020921,"MEAN_MOTION_DOT":2.959e-5,"MEAN_MOTION_DDOT":0}]
