ESEO                    
1 43792U 18099AL  26068.65529582  .00002831  00000+0  20935-3 0  9991
2 43792  97.4113 110.2601 0011063 317.6000  42.4371 15.03914518396849
STARLINK-34586          
1 64950U 25158U   26068.62119266  .00002959  00000+0  20921-3 0  9991
2 64950  97.6022 293.9897 0002291  63.8089 296.3373 15.05649193 35348
